STARLINK-1526
1 46029U 20055C   26061.25002314  .00071230  00000+0  42778-2 0  9997
2 46029  53.0678 159.9815 0001481 113.3644 145.0552 15.10265817  5728
